[{"CCSDS_OMM_VERS":"2.0","COMMENT":"GENERATED VIA SPACE-TRACK.ORG API","CREATION_DATE":"2022-12-08T18:21:51","ORIGINATOR":"18 SPCS","OBJECT_NAME":"NSTAR B","OBJECT_ID":"1996-007A","CENTER_NAME":"EARTH","REF_FRAME":"TEME","TIME_SYSTEM":"UTC","MEAN_ELEMENT_THEORY":"SGP4","EPOCH":"2022-12-07T21:39:42.802272","MEAN_MOTION":"0.99263451","ECCENTRICITY":"0.00094120","INCLINATION":"11.0081","RA_OF_ASC_NODE":"34.5040","ARG_OF_PERICENTER":"256.7035","MEAN_ANOMALY":"106.0188","EPHEMERIS_TYPE":"0","CLASSIFICATION_TYPE":"U","NORAD_CAT_ID":"23781","ELEMENT_SET_NO":"999","REV_AT_EPOCH":"9767","BSTAR":"0.00000000000000","MEAN_MOTION_DOT":"-0.00000186","MEAN_MOTION_DDOT":"0.0000000000000","SEMIMAJOR_AXIS":"42449.795","PERIOD":"1450.685","APOAPSIS":"36111.614","PERIAPSIS":"36031.706","OBJECT_TYPE":"PAYLOAD","RCS_SIZE":"LARGE","COUNTRY_CODE":"JPN","LAUNCH_DATE":"1996-02-05","SITE":"FRGUI","DECAY_DATE":null,"FILE":"3684614","GP_ID":"219760957","TLE_LINE0":"0 NSTAR B","TLE_LINE1":"1 23781U 96007A   22341.90257873 -.00000186  00000-0  00000-0 0  9992","TLE_LINE2":"2 23781  11.0081  34.5040 0009412 256.7035 106.0188  0.99263451 97676"},{"CCSDS_OMM_VERS":"2.0","COMMENT":"GENERATED VIA SPACE-TRACK.ORG API","CREATION_DATE":"2022-12-08T18:21:51","ORIGINATOR":"18 SPCS","OBJECT_NAME":"PAKSAT 1 (ANATOLIA 1)","OBJECT_ID":"1996-006A","CENTER_NAME":"EARTH","REF_FRAME":"TEME","TIME_SYSTEM":"UTC","MEAN_ELEMENT_THEORY":"SGP4","EPOCH":"2022-12-08T08:15:51.809760","MEAN_MOTION":"0.99595118","ECCENTRICITY":"0.00059930","INCLINATION":"8.1737","RA_OF_ASC_NODE":"56.1308","ARG_OF_PERICENTER":"143.0704","MEAN_ANOMALY":"21.8485","EPHEMERIS_TYPE":"0","CLASSIFICATION_TYPE":"U","NORAD_CAT_ID":"23779","ELEMENT_SET_NO":"999","REV_AT_EPOCH":"9803","BSTAR":"0.00000000000000","MEAN_MOTION_DOT":"0.00000020","MEAN_MOTION_DDOT":"0.0000000000000","SEMIMAJOR_AXIS":"42355.499","PERIOD":"1445.854","APOAPSIS":"36002.748","PERIAPSIS":"35951.981","OBJECT_TYPE":"PAYLOAD","RCS_SIZE":"LARGE","COUNTRY_CODE":"PAKI","LAUNCH_DATE":"1996-02-01","SITE":"AFETR","DECAY_DATE":null,"FILE":"3684614","GP_ID":"219760714","TLE_LINE0":"0 PAKSAT 1 (ANATOLIA 1)","TLE_LINE1":"1 23779U 96006A   22342.34434965  .00000020  00000-0  00000-0 0  9992","TLE_LINE2":"2 23779   8.1737  56.1308 0005993 143.0704  21.8485  0.99595118 98039"},{"CCSDS_OMM_VERS":"2.0","COMMENT":"GENERATED VIA SPACE-TRACK.ORG API","CREATION_DATE":"2022-12-08T18:21:51","ORIGINATOR":"18 SPCS","OBJECT_NAME":"GORIZONT 31","OBJECT_ID":"1996-005A","CENTER_NAME":"EARTH","REF_FRAME":"TEME","TIME_SYSTEM":"UTC","MEAN_ELEMENT_THEORY":"SGP4","EPOCH":"2022-12-08T13:52:57.649728","MEAN_MOTION":"0.99886304","ECCENTRICITY":"0.00188480","INCLINATION":"14.5071","RA_OF_ASC_NODE":"4.1910","ARG_OF_PERICENTER":"203.0958","MEAN_ANOMALY":"182.7163","EPHEMERIS_TYPE":"0","CLASSIFICATION_TYPE":"U","NORAD_CAT_ID":"23775","ELEMENT_SET_NO":"999","REV_AT_EPOCH":"9820","BSTAR":"0.00000000000000","MEAN_MOTION_DOT":"-0.00000278","MEAN_MOTION_DDOT":"0.0000000000000","SEMIMAJOR_AXIS":"42273.144","PERIOD":"1441.639","APOAPSIS":"35974.685","PERIAPSIS":"35815.332","OBJECT_TYPE":"PAYLOAD","RCS_SIZE":"LARGE","COUNTRY_CODE":"CIS","LAUNCH_DATE":"1996-01-25","SITE":"TTMTR","DECAY_DATE":null,"FILE":"3684614","GP_ID":"219759213","TLE_LINE0":"0 GORIZONT 31","TLE_LINE1":"1 23775U 96005A   22342.57844502 -.00000278  00000-0  00000-0 0  9990","TLE_LINE2":"2 23775  14.5071   4.1910 0018848 203.0958 182.7163  0.99886304 98209"},{"CCSDS_OMM_VERS":"2.0","COMMENT":"GENERATED VIA SPACE-TRACK.ORG API","CREATION_DATE":"2022-12-08T18:21:51","ORIGINATOR":"18 SPCS","OBJECT_NAME":"ABS 1A (KOREASAT 2)","OBJECT_ID":"1996-003A","CENTER_NAME":"EARTH","REF_FRAME":"TEME","TIME_SYSTEM":"UTC","MEAN_ELEMENT_THEORY":"SGP4","EPOCH":"2022-12-08T05:09:42.740928","MEAN_MOTION":"0.99795461","ECCENTRICITY":"0.00030310","INCLINATION":"10.8598","RA_OF_ASC_NODE":"34.2422","ARG_OF_PERICENTER":"114.6538","MEAN_ANOMALY":"35.9139","EPHEMERIS_TYPE":"0","CLASSIFICATION_TYPE":"U","NORAD_CAT_ID":"23768","ELEMENT_SET_NO":"999","REV_AT_EPOCH":"9833","BSTAR":"0.00000000000000","MEAN_MOTION_DOT":"0.00000096","MEAN_MOTION_DDOT":"0.0000000000000","SEMIMAJOR_AXIS":"42298.794","PERIOD":"1442.951","APOAPSIS":"35933.479","PERIAPSIS":"35907.838","OBJECT_TYPE":"PAYLOAD","RCS_SIZE":"LARGE","COUNTRY_CODE":"SKOR","LAUNCH_DATE":"1996-01-14","SITE":"AFETR","DECAY_DATE":null,"FILE":"3684614","GP_ID":"219759713","TLE_LINE0":"0 ABS 1A (KOREASAT 2)","TLE_LINE1":"1 23768U 96003A   22342.21507802  .00000096  00000-0  00000-0 0  9997","TLE_LINE2":"2 23768  10.8598  34.2422 0003031 114.6538  35.9139  0.99795461 98334"},{"CCSDS_OMM_VERS":"2.0","COMMENT":"GENERATED VIA SPACE-TRACK.ORG API","CREATION_DATE":"2022-12-08T18:21:51","ORIGINATOR":"18 SPCS","OBJECT_NAME":"AFRICASAT 1 (MEASAT 1)","OBJECT_ID":"1996-002B","CENTER_NAME":"EARTH","REF_FRAME":"TEME","TIME_SYSTEM":"UTC","MEAN_ELEMENT_THEORY":"SGP4","EPOCH":"2022-12-08T07:34:11.597664","MEAN_MOTION":"0.99060171","ECCENTRICITY":"0.00034810","INCLINATION":"10.4771","RA_OF_ASC_NODE":"37.9184","ARG_OF_PERICENTER":"326.8256","MEAN_ANOMALY":"68.6463","EPHEMERIS_TYPE":"0","CLASSIFICATION_TYPE":"U","NORAD_CAT_ID":"23765","ELEMENT_SET_NO":"999","REV_AT_EPOCH":"9810","BSTAR":"0.00000000000000","MEAN_MOTION_DOT":"0.00000058","MEAN_MOTION_DDOT":"0.0000000000000","SEMIMAJOR_AXIS":"42507.849","PERIOD":"1453.662","APOAPSIS":"36144.511","PERIAPSIS":"36114.917","OBJECT_TYPE":"PAYLOAD","RCS_SIZE":"LARGE","COUNTRY_CODE":"MALA","LAUNCH_DATE":"1996-01-12","SITE":"FRGUI","DECAY_DATE":null,"FILE":"3684614","GP_ID":"219760713","TLE_LINE0":"0 AFRICASAT 1 (MEASAT 1)","TLE_LINE1":"1 23765U 96002B   22342.31541201  .00000058  00000-0  00000-0 0  9993","TLE_LINE2":"2 23765  10.4771  37.9184 0003481 326.8256  68.6463  0.99060171 98109"},{"CCSDS_OMM_VERS":"2.0","COMMENT":"GENERATED VIA SPACE-TRACK.ORG API","CREATION_DATE":"2022-12-08T18:21:51","ORIGINATOR":"18 SPCS","OBJECT_NAME":"INTELSAT 3R (PAS 3R)","OBJECT_ID":"1996-002A","CENTER_NAME":"EARTH","REF_FRAME":"TEME","TIME_SYSTEM":"UTC","MEAN_ELEMENT_THEORY":"SGP4","EPOCH":"2022-12-08T12:17:14.024832","MEAN_MOTION":"0.99090965","ECCENTRICITY":"0.00125900","INCLINATION":"9.4357","RA_OF_ASC_NODE":"45.8560","ARG_OF_PERICENTER":"242.4788","MEAN_ANOMALY":"114.7768","EPHEMERIS_TYPE":"0","CLASSIFICATION_TYPE":"U","NORAD_CAT_ID":"23764","ELEMENT_SET_NO":"999","REV_AT_EPOCH":"9803","BSTAR":"0.00000000000000","MEAN_MOTION_DOT":"-0.00000290","MEAN_MOTION_DDOT":"0.0000000000000","SEMIMAJOR_AXIS":"42499.042","PERIOD":"1453.210","APOAPSIS":"36174.413","PERIAPSIS":"36067.400","OBJECT_TYPE":"PAYLOAD","RCS_SIZE":"LARGE","COUNTRY_CODE":"US","LAUNCH_DATE":"1996-01-12","SITE":"FRGUI","DECAY_DATE":null,"FILE":"3684614","GP_ID":"219759461","TLE_LINE0":"0 INTELSAT 3R (PAS 3R)","TLE_LINE1":"1 23764U 96002A   22342.51196788 -.00000290  00000-0  00000-0 0  9999","TLE_LINE2":"2 23764   9.4357  45.8560 0012590 242.4788 114.7768  0.99090965 98033"},{"CCSDS_OMM_VERS":"2.0","COMMENT":"GENERATED VIA SPACE-TRACK.ORG API","CREATION_DATE":"2022-12-08T18:21:51","ORIGINATOR":"18 SPCS","OBJECT_NAME":"GALAXY 3R","OBJECT_ID":"1995-069A","CENTER_NAME":"EARTH","REF_FRAME":"TEME","TIME_SYSTEM":"UTC","MEAN_ELEMENT_THEORY":"SGP4","EPOCH":"2022-12-08T07:25:17.808096","MEAN_MOTION":"1.00238295","ECCENTRICITY":"0.00034190","INCLINATION":"12.0638","RA_OF_ASC_NODE":"25.0853","ARG_OF_PERICENTER":"85.8813","MEAN_ANOMALY":"308.3689","EPHEMERIS_TYPE":"0","CLASSIFICATION_TYPE":"U","NORAD_CAT_ID":"23741","ELEMENT_SET_NO":"999","REV_AT_EPOCH":"9891","BSTAR":"0.00000000000000","MEAN_MOTION_DOT":"0.00000046","MEAN_MOTION_DDOT":"0.0000000000000","SEMIMAJOR_AXIS":"42174.123","PERIOD":"1436.577","APOAPSIS":"35810.407","PERIAPSIS":"35781.569","OBJECT_TYPE":"PAYLOAD","RCS_SIZE":"LARGE","COUNTRY_CODE":"US","LAUNCH_DATE":"1995-12-15","SITE":"AFETR","DECAY_DATE":null,"FILE":"3684614","GP_ID":"219760955","TLE_LINE0":"0 GALAXY 3R","TLE_LINE1":"1 23741U 95069A   22342.30923389  .00000046  00000-0  00000-0 0  9996","TLE_LINE2":"2 23741  12.0638  25.0853 0003419  85.8813 308.3689  1.00238295 98916"},{"CCSDS_OMM_VERS":"2.0","COMMENT":"GENERATED VIA SPACE-TRACK.ORG API","CREATION_DATE":"2022-12-08T18:21:51","ORIGINATOR":"18 SPCS","OBJECT_NAME":"INSAT 2C","OBJECT_ID":"1995-067B","CENTER_NAME":"EARTH","REF_FRAME":"TEME","TIME_SYSTEM":"UTC","MEAN_ELEMENT_THEORY":"SGP4","EPOCH":"2022-12-08T10:32:03.003360","MEAN_MOTION":"0.99787979","ECCENTRICITY":"0.00036780","INCLINATION":"13.5425","RA_OF_ASC_NODE":"17.6261","ARG_OF_PERICENTER":"44.7673","MEAN_ANOMALY":"307.3877","EPHEMERIS_TYPE":"0","CLASSIFICATION_TYPE":"U","NORAD_CAT_ID":"23731","ELEMENT_SET_NO":"999","REV_AT_EPOCH":"9856","BSTAR":"0.00000000000000","MEAN_MOTION_DOT":"-0.00000351","MEAN_MOTION_DDOT":"0.0000000000000","SEMIMAJOR_AXIS":"42300.908","PERIOD":"1443.060","APOAPSIS":"35938.331","PERIAPSIS":"35907.215","OBJECT_TYPE":"PAYLOAD","RCS_SIZE":"LARGE","COUNTRY_CODE":"IND","LAUNCH_DATE":"1995-12-06","SITE":"FRGUI","DECAY_DATE":null,"FILE":"3684614","GP_ID":"219759960","TLE_LINE0":"0 INSAT 2C","TLE_LINE1":"1 23731U 95067B   22342.43892365 -.00000351  00000-0  00000-0 0  9996","TLE_LINE2":"2 23731  13.5425  17.6261 0003678  44.7673 307.3877  0.99787979 98564"}]